[{"OBJECT_NAME":"HAIYANG-3A","OBJECT_ID":"2023-176A","EPOCH":"2026-03-09T22:59:35.740320","MEAN_MOTION":14.34139944,"ECCENTRICITY":0.00087972,"INCLINATION":98.552,"RA_OF_ASC_NODE":148.0351,"ARG_OF_PERICENTER":324.745,"MEAN_ANOMALY":35.3152,"EPHEMERIS_TYPE":0,"CLASSIFICATION_TYPE":"U","NORAD_CAT_ID":58349,"ELEMENT_SET_NO":999,"REV_AT_EPOCH":12109,"BSTAR":7.6477628e-5,"MEAN_MOTION_DOT":1.7e-6,"MEAN_MOTION_DDOT":0},{"OBJECT_NAME":"COSMOS 858","OBJECT_ID":"1976-098A","EPOCH":"2026-03-09T22:04:27.323616","MEAN_MOTION":14.35100913,"ECCENTRICITY":0.00129385,"INCLINATION":74.052,"RA_OF_ASC_NODE":339.9975,"ARG_OF_PERICENTER":127.0772,"MEAN_ANOMALY":233.1566,"EPHEMERIS_TYPE":0,"CLASSIFICATION_TYPE":"U","NORAD_CAT_ID":9443,"ELEMENT_SET_NO":999,"REV_AT_EPOCH":58451,"BSTAR":7.9035343e-5,"MEAN_MOTION_DOT":2.0e-6,"MEAN_MOTION_DDOT":0}]
